OBJECT C                
1 57582U 23117C   25232.24236329  .00008143  00000+0  31028-3 0  9998
2 57582  97.4414 306.9273 0007782 221.9732 138.0911 15.26946949112448
